GSAT0218 (GALILEO 22)   
1 43058U 17079D   26060.22999436  .00000018  00000+0  00000+0 0  9999
2 43058  55.1053 224.4697 0001889 305.5636  54.3694  1.70474409 51170
GOES 17                 
1 43226U 18022A   26062.14836481 -.00000198  00000+0  00000+0 0  9998
2 43226   0.6649  87.5818 0002322 219.7732 177.4660  1.00270443 29363
GSAT0221 (GALILEO 25)   
1 43564U 18060A   26059.54670036 -.00000105  00000+0  00000+0 0  9995
2 43564  57.2051 344.7173 0005804 306.7848  53.1689  1.70475369 47315
GSAT0222 (GALILEO 26)   
1 43565U 18060B   26055.66007047 -.00000092  00000+0  00000+0 0  9996
2 43565  57.2093 344.8256 0004435 285.4820  74.4799  1.70474973 47292
GSAT0219 (GALILEO 23)   
1 43566U 18060C   26053.53475141 -.00000082  00000+0  00000+0 0  9994
2 43566  57.2094 344.8846 0005774 308.6957  51.2673  1.70475208 47235
GSAT0220 (GALILEO 24)   
1 43567U 18060D   26058.44840234 -.00000102  00000+0  00000+0 0  9992
2 43567  57.2075 344.7516 0005301 308.5821  51.3768  1.70475159 47302
BEIDOU-3 M13            
1 43622U 18072A   26061.14480929 -.00000007  00000+0  00000+0 0  9993
2 43622  56.5306  66.1905 0008885 307.5967  52.3573  1.86230769 50661
BEIDOU-3 M14            
1 43623U 18072B   26061.01026698 -.00000006  00000+0  00000+0 0  9998
2 43623  56.5324  66.1890 0006344 328.5825  31.4150  1.86230813 50657
GPS BIII-1              
1 43873U 18109A   26061.55588921  .00000022  00000+0  00000+0 0  9994
2 43873  55.6138  96.3922 0037879 198.2365 334.0151  2.00556616 52931
METEOR-M2 2             
1 44387U 19038A   26062.24201848  .00000214  00000+0  11245-3 0  9994
2 44387  98.9070  48.0046 0001255  15.1716 344.9499 14.24330904346215
GPS BIII-2              
1 44506U 19056A   26062.19130604 -.00000098  00000+0  00000+0 0  9996
2 44506  55.6853 335.3576 0058023 198.1770 333.1087  2.00568213 47942
BEIDOU-3 M24            
1 44542U 19061A   26061.38826417 -.00000027  00000+0  00000+0 0  9998
2 44542  54.3994 186.3291 0008610  21.3330 338.6547  1.86228769 43802
BEIDOU-3 M23            
1 44543U 19061B   26061.53276793 -.00000026  00000+0  00000+0 0  9991
2 44543  54.3977 186.2925 0005086  14.2516 354.8811  1.86227187 43816
BEIDOU-3 M22            
1 44793U 19078A   26059.07985671 -.00000039  00000+0  00000+0 0  9998
2 44793  54.0347 303.6688 0007221  34.9561 325.1493  1.86231871 42613
BEIDOU-3 M21            
1 44794U 19078B   26061.36718642 -.00000049  00000+0  00000+0 0  9997
2 44794  54.0055 303.5509 0005915  39.6239 320.4796  1.86227509 42665
ELEKTRO-L 3             
1 44903U 19095A   26062.17372037  .00000000  00000+0  00000+0 0  9998
2 44903   0.0049 233.3005 0001601  93.0368 333.1326  1.00266961 22644
GPS BIII-3              
1 45854U 20041A   26061.22387252 -.00000073  00000+0  00000+0 0  9998
2 45854  56.6045  33.0935 0061351 205.2559 289.6941  2.00560558 41893
